[{"OBJECT_NAME":"STARLINK-1646","OBJECT_ID":"2020-062AC","EPOCH":"2026-03-09T22:32:49.520256","MEAN_MOTION":15.55410621,"ECCENTRICITY":0.00055037,"INCLINATION":53.0472,"RA_OF_ASC_NODE":334.0562,"ARG_OF_PERICENTER":134.745,"MEAN_ANOMALY":225.4009,"EPHEMERIS_TYPE":0,"CLASSIFICATION_TYPE":"U","NORAD_CAT_ID":46351,"ELEMENT_SET_NO":999,"REV_AT_EPOCH":30494,"BSTAR":0.0018630544,"MEAN_MOTION_DOT":0.00130817,"MEAN_MOTION_DDOT":0},{"OBJECT_NAME":"AETHER-1","OBJECT_ID":"2023-174AB","EPOCH":"2026-03-09T17:17:51.429696","MEAN_MOTION":15.59029667,"ECCENTRICITY":0.00048301,"INCLINATION":97.3866,"RA_OF_ASC_NODE":157.5943,"ARG_OF_PERICENTER":156.7796,"MEAN_ANOMALY":203.368,"EPHEMERIS_TYPE":0,"CLASSIFICATION_TYPE":"U","NORAD_CAT_ID":58281,"ELEMENT_SET_NO":999,"REV_AT_EPOCH":13035,"BSTAR":0.0011500755,"MEAN_MOTION_DOT":0.00090327,"MEAN_MOTION_DDOT":0}]
